NORAD_CAT_ID,OBJECT_NAME,OBJECT_TYPE,EPOCH,MEAN_MOTION,ECCENTRICITY,INCLINATION,RA_OF_ASC_NODE,ARG_OF_PERICENTER,MEAN_ANOMALY,BSTAR,MEAN_MOTION_DOT,MEAN_MOTION_DDOT,TLE_LINE0,TLE_LINE1,TLE_LINE2,SEMIMAJOR_AXIS,PERIOD,APOGEE,PERIGEE,DECAYED
55756.0,STARLINK-5614,PAYLOAD,2024-04-02 18:17:29,14.98311141,0.0003043,70.0003,224.1614,267.4837,92.5974,-0.00015463,-1.937e-05,0.0,0 STARLINK-5614,1 55756U 23028R   24093.76214741 -.00001937  00000-0 -15463-3 0  9997,2 55756  70.0003 224.1614 0003043 267.4837  92.5974 14.98311141 60305,6950.251,96.108,574.231,570.001,0.0
55756.0,STARLINK-5614,PAYLOAD,2024-04-03 10:18:49,14.98306235,0.000335,70.0004,222.4789,272.1803,87.8973,0.00019137,2.19e-05,0.0,0 STARLINK-5614,1 55756U 23028R   24094.42974490  .00002190  00000-0  19137-3 0  9997,2 55756  70.0004 222.4789 0003350 272.1803  87.8973 14.98306235 60402,6950.266,96.109,574.46,569.803,0.0
55756.0,STARLINK-5614,PAYLOAD,2024-04-03 15:07:14,14.98311346,0.0003376,70.0003,221.9741,272.0523,88.025,0.0002103,2.416e-05,0.0,0 STARLINK-5614,1 55756U 23028R   24094.63002441  .00002416  00000-0  21030-3 0  9994,2 55756  70.0003 221.9741 0003376 272.0523  88.0250 14.98311346 60432,6950.251,96.108,574.462,569.769,0.0
55756.0,STARLINK-5614,PAYLOAD,2024-04-03 18:19:30,14.983125,0.0003237,70.0003,221.637,271.0633,89.0155,0.00021373,2.457e-05,0.0,0 STARLINK-5614,1 55756U 23028R   24094.76354547  .00002457  00000-0  21373-3 0  9990,2 55756  70.0003 221.6370 0003237 271.0633  89.0155 14.98312500 60454,6950.247,96.108,574.362,569.862,0.0
55756.0,STARLINK-5614,PAYLOAD,2024-04-04 13:33:07,14.98319291,0.0003369,70.0004,219.6174,271.4502,88.6271,0.00027716,3.215e-05,0.0,0 STARLINK-5614,1 55756U 23028R   24095.56466771  .00003215  00000-0  27716-3 0  9992,2 55756  70.0004 219.6174 0003369 271.4502  88.6271 14.98319291 60570,6950.226,96.108,574.433,569.749,0.0
55756.0,STARLINK-5614,PAYLOAD,2024-04-04 15:09:15,14.98324934,0.0003413,70.0003,219.4493,271.5545,88.5223,0.00025425,2.942e-05,0.0,0 STARLINK-5614,1 55756U 23028R   24095.63142519  .00002942  00000-0  25425-3 0  9992,2 55756  70.0003 219.4493 0003413 271.5545  88.5223 14.98324934 60586,6950.209,96.107,574.446,569.701,0.0
55756.0,STARLINK-5614,PAYLOAD,2024-04-04 18:21:31,14.98327224,0.0003386,70.0004,219.1126,271.448,88.6291,0.00027291,3.165e-05,0.0,0 STARLINK-5614,1 55756U 23028R   24095.76494401  .00003165  00000-0  27291-3 0  9997,2 55756  70.0004 219.1126 0003386 271.4480  88.6291 14.98327224 60607,6950.201,96.107,574.42,569.713,0.0
55756.0,STARLINK-5614,PAYLOAD,2024-04-05 11:59:00,14.98331386,0.0003299,70.0007,217.2611,271.7783,88.2998,8.7187e-05,9.47e-06,0.0,0 STARLINK-5614,1 55756U 23028R   24096.49930734  .00000947  00000-0  87187-4 0  9998,2 55756  70.0007 217.2611 0003299 271.7783  88.2998 14.98331386 60716,6950.189,96.107,574.346,569.761,0.0
55756.0,STARLINK-5614,PAYLOAD,2024-04-05 18:23:32,14.98334963,0.0003279,70.0008,216.5879,271.8765,88.2018,0.00011954,1.334e-05,0.0,0 STARLINK-5614,1 55756U 23028R   24096.76634379  .00001334  00000-0  11954-3 0  9993,2 55756  70.0008 216.5879 0003279 271.8765  88.2018 14.98334963 60755,6950.178,96.107,574.322,569.764,0.0
55756.0,STARLINK-5614,PAYLOAD,2024-04-06 13:37:10,14.98280326,0.0003309,70.0014,214.5695,266.424,93.654,0.00095628,0.00011321,0.0,0 STARLINK-5614,1 55756U 23028R   24097.56748231  .00011321  00000-0  95628-3 0  9992,2 55756  70.0014 214.5695 0003309 266.4240  93.6540 14.98280326 60874,6950.347,96.11,574.511,569.912,0.0
55756.0,STARLINK-5614,PAYLOAD,2024-04-07 10:26:54,14.98329745,0.0003079,70.0015,212.381,266.1839,93.8968,-2.856e-05,-4.34e-06,0.0,0 STARLINK-5614,1 55756U 23028R   24098.43534853 -.00000434  00000-0 -28560-4 0  9999,2 55756  70.0015 212.3810 0003079 266.1839  93.8968 14.98329745 61006,6950.194,96.107,574.199,569.919,0.0
55756.0,STARLINK-5614,PAYLOAD,2024-04-07 13:39:10,14.98330519,0.0003078,70.0015,212.0443,266.3118,93.7689,-1.8335e-05,-3.12e-06,0.0,0 STARLINK-5614,1 55756U 23028R   24098.56886787 -.00000312  00000-0 -18335-4 0  9993,2 55756  70.0015 212.0443 0003078 266.3118  93.7689 14.98330519 61028,6950.191,96.107,574.196,569.917,0.0
55756.0,STARLINK-5614,PAYLOAD,2024-04-08 13:41:10,14.98332066,0.0003445,70.0005,209.5198,269.5603,90.5161,6.0528e-05,6.29e-06,0.0,0 STARLINK-5614,1 55756U 23028R   24099.57026505  .00000629  00000-0  60528-4 0  9999,2 55756  70.0005 209.5198 0003445 269.5603  90.5161 14.98332066 61172,6950.187,96.107,574.446,569.657,0.0
55756.0,STARLINK-5614,PAYLOAD,2024-04-09 10:30:55,14.98329812,0.0003384,70.0006,207.3309,268.4836,91.5935,3.8915e-05,3.71e-06,0.0,0 STARLINK-5614,1 55756U 23028R   24100.43814673  .00000371  00000-0  38915-4 0  9997,2 55756  70.0006 207.3309 0003384 268.4836  91.5935 14.98329812 61301,6950.193,96.107,574.41,569.707,0.0
55756.0,STARLINK-5614,PAYLOAD,2024-04-09 13:43:11,14.98332909,0.0003369,70.0006,206.9942,268.1277,91.9496,7.2794e-05,7.76e-06,0.0,0 STARLINK-5614,1 55756U 23028R   24100.57166392  .00000776  00000-0  72794-4 0  9992,2 55756  70.0006 206.9942 0003369 268.1277  91.9496 14.98332909 61327,6950.184,96.107,574.39,569.707,0.0
55756.0,STARLINK-5614,PAYLOAD,2024-04-10 13:45:12,14.98339715,0.0003362,70.0007,204.4697,268.5049,91.5725,0.00010017,1.103e-05,0.0,0 STARLINK-5614,1 55756U 23028R   24101.57305634  .00001103  00000-0  10017-3 0  9991,2 55756  70.0007 204.4697 0003362 268.5049  91.5725 14.98339715 61471,6950.163,96.106,574.364,569.691,0.0
55756.0,STARLINK-5614,PAYLOAD,2024-04-10 16:57:28,14.98340179,0.0003354,70.0007,204.133,268.5643,91.5132,0.00010237,1.129e-05,0.0,0 STARLINK-5614,1 55756U 23028R   24101.70657527  .00001129  00000-0  10237-3 0  9999,2 55756  70.0007 204.1330 0003354 268.5643  91.5132 14.98340179 61493,6950.161,96.106,574.357,569.695,0.0
55756.0,STARLINK-5614,PAYLOAD,2024-04-11 05:46:33,14.98329006,0.0003257,70.0005,202.7865,268.4557,91.6229,1.7795e-06,-7.2e-07,0.0,0 STARLINK-5614,1 55756U 23028R   24102.24066394 -.00000072  00000-0  17795-5 0  9990,2 55756  70.0005 202.7865 0003257 268.4557  91.6229 14.98329006 61576,6950.196,96.107,574.325,569.797,0.0
55756.0,STARLINK-5614,PAYLOAD,2024-04-11 13:47:13,14.98329809,0.0003256,70.0008,201.945,268.6497,91.4289,-3.2532e-05,-4.81e-06,0.0,0 STARLINK-5614,1 55756U 23028R   24102.57446466 -.00000481  00000-0 -32532-4 0  9998,2 55756  70.0008 201.9450 0003256 268.6497  91.4289 14.98329809 61625,6950.193,96.107,574.321,569.795,0.0
55756.0,STARLINK-5614,PAYLOAD,2024-04-12 12:13:06,14.98332611,0.0003166,70.0013,199.5887,269.7618,90.3179,-6.1539e-06,-1.66e-06,0.0,0 STARLINK-5614,1 55756U 23028R   24103.50910190 -.00000166  00000-0 -61539-5 0  9992,2 55756  70.0013 199.5887 0003166 269.7618  90.3179 14.98332611 61760,6950.185,96.107,574.25,569.849,0.0
55756.0,STARLINK-5614,PAYLOAD,2024-04-12 13:49:14,14.98330573,0.0003123,70.0014,199.4202,269.7776,90.3025,-1.1201e-05,-2.27e-06,0.0,0 STARLINK-5614,1 55756U 23028R   24103.57586339 -.00000227  00000-0 -11201-4 0  9991,2 55756  70.0014 199.4202 0003123 269.7776  90.3025 14.98330573 61775,6950.191,96.107,574.227,569.886,0.0
55756.0,STARLINK-5614,PAYLOAD,2024-04-12 15:25:22,14.98330648,0.0003077,70.0014,199.2519,268.9013,91.1793,-1.2703e-05,-2.45e-06,0.0,0 STARLINK-5614,1 55756U 23028R   24103.64262337 -.00000245  00000-0 -12703-4 0  9996,2 55756  70.0014 199.2519 0003077 268.9013  91.1793 14.98330648 61782,6950.191,96.107,574.194,569.917,0.0
55756.0,STARLINK-5614,PAYLOAD,2024-04-13 12:15:07,14.9832733,0.0003114,70.0012,197.0651,268.9717,91.1085,5.0287e-05,5.07e-06,0.0,0 STARLINK-5614,1 55756U 23028R   24104.51050420  .00000507  00000-0  50287-4 0  9999,2 55756  70.0012 197.0651 0003114 268.9717  91.1085 14.98327330 61919,6950.201,96.107,574.23,569.902,0.0
55756.0,STARLINK-5614,PAYLOAD,2024-04-13 13:51:14,14.98359338,0.000338,70.0012,196.8966,269.0065,91.0706,-0.00047687,-5.783e-05,0.0,0 STARLINK-5614,1 55756U 23028R   24104.57725545 -.00005783  00000-0 -47687-3 0  9994,2 55756  70.0012 196.8966 0003380 269.0065  91.0706 14.98359338 61921,6950.102,96.105,574.316,569.618,0.0
55756.0,STARLINK-5614,PAYLOAD,2024-04-13 15:27:23,14.98329431,0.0003201,70.0012,196.7282,270.19,89.8892,6.9425e-05,7.35e-06,0.0,0 STARLINK-5614,1 55756U 23028R   24104.64402256  .00000735  00000-0  69425-4 0  9998,2 55756  70.0012 196.7282 0003201 270.1900  89.8892 14.98329431 61937,6950.195,96.107,574.284,569.835,0.0
55756.0,STARLINK-5614,PAYLOAD,2024-04-14 12:17:08,14.98329568,0.0002965,70.0019,194.5415,258.1826,101.9001,2.7595e-05,2.36e-06,0.0,0 STARLINK-5614,1 55756U 23028R   24105.51190453  .00000236  00000-0  27595-4 0  9996,2 55756  70.0019 194.5415 0002965 258.1826 101.9001 14.98329568 62061,6950.194,96.107,574.12,569.998,0.0
55756.0,STARLINK-5614,PAYLOAD,2024-04-14 15:29:24,14.98331541,0.0002961,70.0018,194.2053,258.3189,101.7638,4.0017e-05,3.85e-06,0.0,0 STARLINK-5614,1 55756U 23028R   24105.64542298  .00000385  00000-0  40017-4 0  9997,2 55756  70.0018 194.2053 0002961 258.3189 101.7638 14.98331541 62085,6950.188,96.107,574.111,569.995,0.0
55756.0,STARLINK-5614,PAYLOAD,2024-04-15 12:19:09,14.98334446,0.0003006,70.0018,192.017,261.3472,98.7346,9.083e-05,9.91e-06,0.0,0 STARLINK-5614,1 55756U 23028R   24106.51329889  .00000991  00000-0  90830-4 0  9994,2 55756  70.0018 192.0170 0003006 261.3472  98.7346 14.98334446 62214,6950.179,96.107,574.133,569.955,0.0
55756.0,STARLINK-5614,PAYLOAD,2024-04-15 13:55:17,14.98334832,0.0003004,70.0018,191.8487,261.4659,98.616,9.3953e-05,1.028e-05,0.0,0 STARLINK-5614,1 55756U 23028R   24106.58005845  .00001028  00000-0  93953-4 0  9995,2 55756  70.0018 191.8487 0003004 261.4659  98.6160 14.98334832 62221,6950.178,96.107,574.131,569.955,0.0
55756.0,STARLINK-5614,PAYLOAD,2024-04-16 12:21:09,14.98340823,0.0003201,70.001,189.4904,270.1877,89.8915,0.00014481,1.636e-05,0.0,0 STARLINK-5614,1 55756U 23028R   24107.51469283  .00001636  00000-0  14481-3 0  9992,2 55756  70.0010 189.4904 0003201 270.1877  89.8915 14.98340823 62360,6950.159,96.106,574.249,569.8,0.0
